start=new Date('2023-05-15T00:00:00.000Z').valueOf();
sats=[{"CLASSIFICATION_TYPE":"U","GP_ID":"231858354","RCS_SIZE":"LARGE","OBJECT_NAME":"STARLINK-5305","ECCENTRICITY":"0.00030290","OBJECT_ID":"2023-010AX","OBJECT_TYPE":"PAYLOAD","MEAN_MOTION":"15.69920473","TLE_LINE1":"1 55314U 23010AX  23135.01312808  .00000257  00000-0  39091-5 0  9992","PERIAPSIS":"357.086","MEAN_MOTION_DOT":"0.00000257","NORAD_CAT_ID":"55314","SEMIMAJOR_AXIS":"6737.262","BSTAR":"0.00000390910000","ELEMENT_SET_NO":"999","EPHEMERIS_TYPE":"0","COUNTRY_CODE":"US","ARG_OF_PERICENTER":"256.2785","SITE":"AFWTR","TIME_SYSTEM":"UTC","LAUNCH_DATE":"2023-01-19","EPOCH":"2023-05-15T00:18:54.266112","PERIOD":"91.724","REV_AT_EPOCH":"1863","MEAN_MOTION_DDOT":"0.0000000000000","APOAPSIS":"361.167","DECAY_DATE":null,"CENTER_NAME":"EARTH","MEAN_ELEMENT_THEORY":"SGP4","INCLINATION":"69.9994","RA_OF_ASC_NODE":"104.2201","REF_FRAME":"TEME","MEAN_ANOMALY":"103.8074","FILE":"3908037","TLE_LINE2":"2 55314  69.9994 104.2201 0003029 256.2785 103.8074 15.69920473 18632"},{"RA_OF_ASC_NODE":"104.7676","INCLINATION":"70.0003","MEAN_ELEMENT_THEORY":"SGP4","FILE":"3908005","TLE_LINE2":"2 55315  70.0003 104.7676 0003585 264.4036  34.7525 15.54362334  1304","MEAN_ANOMALY":"34.7525","REF_FRAME":"TEME","REV_AT_EPOCH":"130","CENTER_NAME":"EARTH","DECAY_DATE":null,"APOAPSIS":"406.440","MEAN_MOTION_DDOT":"0.0000000000000","TIME_SYSTEM":"UTC","LAUNCH_DATE":"2023-01-19","SITE":"AFWTR","ARG_OF_PERICENTER":"264.4036","PERIOD":"92.642","EPOCH":"2023-05-14T22:00:00.999936","COUNTRY_CODE":"US","EPHEMERIS_TYPE":"0","BSTAR":"-0.01578300000000","ELEMENT_SET_NO":"999","PERIAPSIS":"401.577","TLE_LINE1":"1 55315U 23010AY  23134.91667824 -.00940103  00000-0 -15783-1 0  9995","MEAN_MOTION":"15.54362334","SEMIMAJOR_AXIS":"6782.144","NORAD_CAT_ID":"55315","MEAN_MOTION_DOT":"-0.00940103","OBJECT_NAME":"STARLINK-4623","RCS_SIZE":"LARGE","CLASSIFICATION_TYPE":"U","GP_ID":"231856022","OBJECT_TYPE":"PAYLOAD","OBJECT_ID":"2023-010AY","ECCENTRICITY":"0.00035850"},{"PERIAPSIS":"356.992","TLE_LINE1":"1 55316U 23010AZ  23134.66082363  .00000120  00000-0  27665-5 0  9997","MEAN_MOTION":"15.69923126","SEMIMAJOR_AXIS":"6737.254","NORAD_CAT_ID":"55316","MEAN_MOTION_DOT":"0.00000120","OBJECT_NAME":"STARLINK-5257","RCS_SIZE":"LARGE","CLASSIFICATION_TYPE":"U","GP_ID":"231855772","OBJECT_TYPE":"PAYLOAD","OBJECT_ID":"2023-010AZ","ECCENTRICITY":"0.00031570","COUNTRY_CODE":"US","EPHEMERIS_TYPE":"0","BSTAR":"0.00000276650000","ELEMENT_SET_NO":"999","LAUNCH_DATE":"2023-01-19","TIME_SYSTEM":"UTC","SITE":"AFWTR","ARG_OF_PERICENTER":"259.9334","PERIOD":"91.724","EPOCH":"2023-05-14T15:51:35.161632","RA_OF_ASC_NODE":"105.4121","INCLINATION":"69.9974","MEAN_ELEMENT_THEORY":"SGP4","FILE":"3908005","TLE_LINE2":"2 55316  69.9974 105.4121 0003157 259.9334 100.1505 15.69923126 19760","MEAN_ANOMALY":"100.1505","REF_FRAME":"TEME","REV_AT_EPOCH":"1976","CENTER_NAME":"EARTH","DECAY_DATE":null,"APOAPSIS":"361.246","MEAN_MOTION_DDOT":"0.0000000000000"},{"EPHEMERIS_TYPE":"0","COUNTRY_CODE":"US","ELEMENT_SET_NO":"999","BSTAR":"0.00000125260000","MEAN_MOTION_DOT":"-0.00000062","SEMIMAJOR_AXIS":"6737.254","NORAD_CAT_ID":"55317","MEAN_MOTION":"15.69923256","PERIAPSIS":"357.273","TLE_LINE1":"1 55317U 23010BA  23135.01323329 -.00000062  00000-0  12526-5 0  9994","OBJECT_ID":"2023-010BA","ECCENTRICITY":"0.00027390","OBJECT_TYPE":"PAYLOAD","RCS_SIZE":"LARGE","GP_ID":"231858435","CLASSIFICATION_TYPE":"U","OBJECT_NAME":"STARLINK-5265","REF_FRAME":"TEME","MEAN_ANOMALY":"92.1739","TLE_LINE2":"2 55317  69.9984 104.2239 0002739 267.9143  92.1739 15.69923256 18639","FILE":"3908037","MEAN_ELEMENT_THEORY":"SGP4","RA_OF_ASC_NODE":"104.2239","INCLINATION":"69.9984","APOAPSIS":"360.964","MEAN_MOTION_DDOT":"0.0000000000000","CENTER_NAME":"EARTH","DECAY_DATE":null,"REV_AT_EPOCH":"1863","EPOCH":"2023-05-15T00:19:03.356256","PERIOD":"91.724","ARG_OF_PERICENTER":"267.9143","TIME_SYSTEM":"UTC","LAUNCH_DATE":"2023-01-19","SITE":"AFWTR"},{"ARG_OF_PERICENTER":"258.2307","LAUNCH_DATE":"2023-01-19","TIME_SYSTEM":"UTC","SITE":"AFWTR","EPOCH":"2023-05-14T07:29:28.054464","PERIOD":"91.723","MEAN_ELEMENT_THEORY":"SGP4","RA_OF_ASC_NODE":"106.1924","INCLINATION":"69.9987","REF_FRAME":"TEME","MEAN_ANOMALY":"101.8519","FILE":"3907744","TLE_LINE2":"2 55318  69.9987 106.1924 0003296 258.2307 101.8519 15.69936397 19713","REV_AT_EPOCH":"1971","APOAPSIS":"361.302","MEAN_MOTION_DDOT":"0.0000000000000","CENTER_NAME":"EARTH","DECAY_DATE":null,"MEAN_MOTION":"15.69936397","PERIAPSIS":"356.860","TLE_LINE1":"1 55318U 23010BB  23134.31213026  .00002637  00000-0  23683-4 0  9993","MEAN_MOTION_DOT":"0.00002637","SEMIMAJOR_AXIS":"6737.216","NORAD_CAT_ID":"55318","RCS_SIZE":"LARGE","GP_ID":"231823413","CLASSIFICATION_TYPE":"U","OBJECT_NAME":"STARLINK-5180","OBJECT_ID":"2023-010BB","ECCENTRICITY":"0.00032960","OBJECT_TYPE":"PAYLOAD","EPHEMERIS_TYPE":"0","COUNTRY_CODE":"US","BSTAR":"0.00002368300000","ELEMENT_SET_NO":"999"},{"OBJECT_ID":"2023-010BC","ECCENTRICITY":"0.00029080","OBJECT_TYPE":"PAYLOAD","RCS_SIZE":"LARGE","GP_ID":"231858351","CLASSIFICATION_TYPE":"U","OBJECT_NAME":"STARLINK-5196","MEAN_MOTION_DOT":"0.00000175","SEMIMAJOR_AXIS":"6737.260","NORAD_CAT_ID":"55319","MEAN_MOTION":"15.69921029","PERIAPSIS":"357.166","TLE_LINE1":"1 55319U 23010BC  23135.01291871  .00000175  00000-0  32200-5 0  9997","ELEMENT_SET_NO":"999","BSTAR":"0.00000322000000","EPHEMERIS_TYPE":"0","COUNTRY_CODE":"US","EPOCH":"2023-05-15T00:18:36.176544","PERIOD":"91.724","ARG_OF_PERICENTER":"266.5804","LAUNCH_DATE":"2023-01-19","TIME_SYSTEM":"UTC","SITE":"AFWTR","APOAPSIS":"361.084","MEAN_MOTION_DDOT":"0.0000000000000","CENTER_NAME":"EARTH","DECAY_DATE":null,"REV_AT_EPOCH":"1863","REF_FRAME":"TEME","MEAN_ANOMALY":"93.5059","TLE_LINE2":"2 55319  69.9989 104.2229 0002908 266.5804  93.5059 15.69921029 18638","FILE":"3908037","MEAN_ELEMENT_THEORY":"SGP4","RA_OF_ASC_NODE":"104.2229","INCLINATION":"69.9989"},{"SITE":"AFETR","LAUNCH_DATE":"2023-01-26","TIME_SYSTEM":"UTC","ARG_OF_PERICENTER":"264.8315","PERIOD":"95.839","EPOCH":"2023-05-14T06:37:26.618592","REV_AT_EPOCH":"1778","DECAY_DATE":null,"CENTER_NAME":"EARTH","MEAN_MOTION_DDOT":"0.0000000000000","APOAPSIS":"560.056","INCLINATION":"43.0022","RA_OF_ASC_NODE":"139.7226","MEAN_ELEMENT_THEORY":"SGP4","TLE_LINE2":"2 55331  43.0022 139.7226 0001357 264.8315  95.2373 15.02525167 17781","FILE":"3907744","MEAN_ANOMALY":"95.2373","REF_FRAME":"TEME","OBJECT_NAME":"STARLINK-5492","GP_ID":"231823662","CLASSIFICATION_TYPE":"U","RCS_SIZE":"LARGE","OBJECT_TYPE":"PAYLOAD","ECCENTRICITY":"0.00013570","OBJECT_ID":"2023-013A","TLE_LINE1":"1 55331U 23013A   23134.27600253 -.00000681  00000-0 -35321-4 0  9999","PERIAPSIS":"558.173","MEAN_MOTION":"15.02525167","NORAD_CAT_ID":"55331","SEMIMAJOR_AXIS":"6937.250","MEAN_MOTION_DOT":"-0.00000681","BSTAR":"-0.00003532100000","ELEMENT_SET_NO":"999","COUNTRY_CODE":"US","EPHEMERIS_TYPE":"0"},{"COUNTRY_CODE":"US","EPHEMERIS_TYPE":"0","ELEMENT_SET_NO":"999","BSTAR":"0.00003606200000","SEMIMAJOR_AXIS":"6931.228","NORAD_CAT_ID":"55332","MEAN_MOTION_DOT":"0.00000306","PERIAPSIS":"552.552","TLE_LINE1":"1 55332U 23013B   23134.66741257  .00000306  00000-0  36062-4 0  9998","MEAN_MOTION":"15.04483810","OBJECT_TYPE":"PAYLOAD","OBJECT_ID":"2023-013B","ECCENTRICITY":"0.00007800","OBJECT_NAME":"STARLINK-5491","RCS_SIZE":"LARGE","CLASSIFICATION_TYPE":"U","GP_ID":"231856274","FILE":"3908005","TLE_LINE2":"2 55332  43.0027 124.4751 0000780 268.7032  91.3722 15.04483810 16918","REF_FRAME":"TEME","MEAN_ANOMALY":"91.3722","RA_OF_ASC_NODE":"124.4751","INCLINATION":"43.0027","MEAN_ELEMENT_THEORY":"SGP4","CENTER_NAME":"EARTH","DECAY_DATE":null,"APOAPSIS":"553.633","MEAN_MOTION_DDOT":"0.0000000000000","REV_AT_EPOCH":"1691","PERIOD":"95.714","EPOCH":"2023-05-14T16:01:04.446048","TIME_SYSTEM":"UTC","LAUNCH_DATE":"2023-01-26","SITE":"AFETR","ARG_OF_PERICENTER":"268.7032"},{"ARG_OF_PERICENTER":"278.6674","SITE":"AFETR","TIME_SYSTEM":"UTC","LAUNCH_DATE":"2023-01-26","EPOCH":"2023-05-14T17:39:32.662080","PERIOD":"95.838","REV_AT_EPOCH":"1677","MEAN_MOTION_DDOT":"0.0000000000000","APOAPSIS":"559.920","DECAY_DATE":null,"CENTER_NAME":"EARTH","MEAN_ELEMENT_THEORY":"SGP4","INCLINATION":"43.0015","RA_OF_ASC_NODE":"137.1547","REF_FRAME":"TEME","MEAN_ANOMALY":"81.4033","TLE_LINE2":"2 55333  43.0015 137.1547 0001193 278.6674  81.4033 15.02532392 16778","FILE":"3908005","CLASSIFICATION_TYPE":"U","GP_ID":"231856525","RCS_SIZE":"LARGE","OBJECT_NAME":"STARLINK-5493","ECCENTRICITY":"0.00011930","OBJECT_ID":"2023-013C","OBJECT_TYPE":"PAYLOAD","MEAN_MOTION":"15.02532392","TLE_LINE1":"1 55333U 23013C   23134.73579470 -.00000618  00000-0 -30662-4 0  9991","PERIAPSIS":"558.265","MEAN_MOTION_DOT":"-0.00000618","NORAD_CAT_ID":"55333","SEMIMAJOR_AXIS":"6937.228","BSTAR":"-0.00003066200000","ELEMENT_SET_NO":"999","EPHEMERIS_TYPE":"0","COUNTRY_CODE":"US"},{"MEAN_MOTION_DOT":"-0.00000018","NORAD_CAT_ID":"55334","SEMIMAJOR_AXIS":"6939.720","MEAN_MOTION":"15.01723097","TLE_LINE1":"1 55334U 23013D   23134.81977757 -.00000018  00000-0  13896-4 0  9994","PERIAPSIS":"560.652","ECCENTRICITY":"0.00013440","OBJECT_ID":"2023-013D","OBJECT_TYPE":"PAYLOAD","GP_ID":"231857276","CLASSIFICATION_TYPE":"U","RCS_SIZE":"LARGE","OBJECT_NAME":"STARLINK-5652","EPHEMERIS_TYPE":"0","COUNTRY_CODE":"US","ELEMENT_SET_NO":"999","BSTAR":"0.00001389600000","EPOCH":"2023-05-14T19:40:28.782048","PERIOD":"95.890","ARG_OF_PERICENTER":"265.3834","SITE":"AFETR","TIME_SYSTEM":"UTC","LAUNCH_DATE":"2023-01-26","REF_FRAME":"TEME","MEAN_ANOMALY":"94.6855","TLE_LINE2":"2 55334  43.0020 132.6091 0001344 265.3834  94.6855 15.01723097 16836","FILE":"3908005","MEAN_ELEMENT_THEORY":"SGP4","INCLINATION":"43.0020","RA_OF_ASC_NODE":"132.6091","MEAN_MOTION_DDOT":"0.0000000000000","APOAPSIS":"562.517","DECAY_DATE":null,"CENTER_NAME":"EARTH","REV_AT_EPOCH":"1683"}];
